CZ-4B R/B               
1 28059U 03049C   16219.76166446 -.00000018  00000-0  75718-5 0  9992
2 28059  98.6043  92.6307 0051164 125.0074 286.0645 14.52450900678034
CZ-2C R/B               
1 28222U 04012C   16219.47200888  .00000729  00000-0  49412-4 0  9991
2 28222  97.4785 176.9443 0048947 183.0497 320.1253 15.08602871673152
SL-16 R/B               
1 28353U 04021B   16219.52796632 -.00000162  00000-0 -60227-4 0  9999
2 28353  71.0007  18.3475 0007038 303.4765  56.5684 14.14184535627670
CZ-2C R/B               
1 28480U 04046B   16220.23320811  .00000002  00000-0  15882-4 0  9997
2 28480  98.1870 330.7763 0143256  71.3182 346.4562 14.25602563609503
ARIANE 5 R/B            
1 28499U 04049H   16219.21033032  .00000114  00000-0  21566-4 0  9992
2 28499  98.1073 293.9386 0093348 151.5749 231.6703 14.79716485627415
CZ-2D R/B               
1 28738U 05024B   16219.68989483  .00000600  00000-0  40120-4 0  9990
2 28738  97.5382 256.0459 0012595  13.8196 346.3376 15.10649726608327
SUZAKU (ASTRO-EII)      
1 28773U 05025A   16220.20100566  .00001227  00000-0  59761-4 0  9994
2 28773  31.3820 171.2930 0004628  79.0152 281.1015 15.14916630609686
ALOS (DAICHI)           
1 28931U 06002A   16219.85447750  .00000121  00000-0  32669-4 0  9994
2 28931  97.8800 256.3333 0000895 128.2690 231.8589 14.62220723561526
H-2A R/B                
1 28932U 06002B   16219.78144650  .00000313  00000-0  35979-4 0  9990
2 28932  98.2097 124.0941 0089298 261.4168 148.6665 14.90973885570952
AKARI (ASTRO-F)         
1 28939U 06005A   16219.47527424  .00005412  00000-0  17798-3 0  9993
2 28939  98.2469  21.1980 0112984 195.2454 164.5369 15.26025110565077
RESURS-DK 1             
1 29228U 06021A   16220.18494651  .00000151  00000-0  18899-4 0  9997
2 29228  69.9352 176.8497 0001770 125.1236 235.0091 15.01952771560959
GENESIS 1               
1 29252U 06029A   16219.48377766  .00000393  00000-0  30674-4 0  9993
2 29252  64.5035 232.8612 0025847 223.8549 250.0680 15.16136051554114
CZ-4B R/B               
1 29507U 06046C   16219.06566031  .00000113  00000-0  14077-4 0  9993
2 29507  97.7827 220.3683 0042183 242.7346 116.9578 14.99778688533808
CZ-2C R/B               
1 31114U 07010B   16219.41211438  .00000010  00000-0  23650-4 0  9992
2 31114  98.4104 131.9037 0060767  49.9039 310.7442 14.19211678482872
COSMO-SKYMED 1          
1 31598U 07023A   16220.11548843 -.00000302  00000-0 -31379-4 0  9997
2 31598  97.8752  42.6968 0001489  81.1194 279.0168 14.82158700495925
GENESIS 2               
1 31789U 07028A   16219.35517330  .00000737  00000-0  48462-4 0  9996
2 31789  64.5040 270.1319 0052550 259.8468  99.6724 15.15387850501186
COSMOS 2428             
1 31792U 07029A   16219.93765142 -.00000331  00000-0 -15379-3 0  9993
2 31792  70.9341 351.7815 0009179  17.3051 342.8381 14.12339388469708
SL-16 R/B               
1 31793U 07029B   16219.87424745  .00000286  00000-0  17458-3 0  9995
2 31793  70.9771 329.3708 0002385 265.2102 233.6559 14.14362701470276
KORONAS-FOTON           
1 33504U 09003A   16219.37122621  .00000529  00000-0  26909-4 0  9996
2 33504  82.4435 185.7144 0021190 115.5306 244.8120 15.14396214413822
TIANGONG 1              
1 37820U 11053A   16220.15609576  .00014951  00000-0  15420-3 0  9995
2 37820  42.7648 302.0685 0014349  29.8154  43.9158 15.64474913278569
CZ-3B R/B               
1 38253U 12018D   16220.11073403  .00193518  54866-6  40153-3 0  9991
2 38253  54.9643 143.8026 3405638 247.4673  73.4156  8.79709181 95426
H-2A R/B                
1 38341U 12025E   16220.19354014  .00000289  00000-0  41784-4 0  9994
2 38341  98.4755 273.0006 0057440  87.8520 272.9268 14.83366727228327
CUSAT 2 & FALCON 9 R/B  
1 39271U 13055G   16218.91634282  .00008327  00000-0  21947-3 0  9995
2 39271  80.9725 329.4151 0653678  51.6906 314.1218 14.32365623147414
ALOS-2                  
1 39766U 14029A   16220.16330842 -.00000254  00000-0 -27199-4 0  9990
2 39766  97.9222 316.0047 0001544  91.2780 268.8591 14.79470008119174
ASTRO-H (HITOMI)        
1 41337U 16012A   16219.65834019  .00000392  00000-0  25297-4 0  9996
2 41337  31.0064 311.6049 0012467 175.1425 184.9332 14.98102599 25716
AL-1 (AOLONG 1)         
1 41629U 16042F   16218.84292881  .00340891  71637-5  18505-3 0  9991
2 41629  40.7996 140.7958 0083942 144.0247 281.7922 16.10689523  6638
